COMMENT,ORIGINATOR,NORAD_CAT_ID,OBJECT_NAME,OBJECT_TYPE,CLASSIFICATION_TYPE,INTLDES,EPOCH,EPOCH_MICROSECONDS,MEAN_MOTION,ECCENTRICITY,INCLINATION,RA_OF_ASC_NODE,ARG_OF_PERICENTER,MEAN_ANOMALY,EPHEMERIS_TYPE,ELEMENT_SET_NO,REV_AT_EPOCH,BSTAR,MEAN_MOTION_DOT,MEAN_MOTION_DDOT,FILE,TLE_LINE0,TLE_LINE1,TLE_LINE2,OBJECT_ID,OBJECT_NUMBER,SEMIMAJOR_AXIS,PERIOD,APOGEE,PERIGEE,DECAYED
"GENERATED VIA SPACETRACK.ORG API","18 SPCS","48896","SPACEBEE-105","PAYLOAD","U","21059T","2022-07-28 19:16:24","638880","15.16419592","0.0007422","97.5596","339.1305","321.6057","38.4647","0","999","6019","0.00026735","0.00005131","0","3524113","0 SPACEBEE-105","1 48896U 21059T   22209.80306295  .00005131  00000-0  26735-3 0  9996","2 48896  97.5596 339.1305 0007422 321.6057  38.4647 15.16419592 60192","2021-059T","48896","6894.809","94.961","521.791","511.557","0"
"GENERATED VIA SPACETRACK.ORG API","18 SPCS","48896","SPACEBEE-105","PAYLOAD","U","21059T","2022-07-29 07:56:34","527552","15.1642437","0.0007389","97.5598","339.6565","319.3704","40.6977","0","999","6027","0.00025002","0.00004795","0","3524608","0 SPACEBEE-105","1 48896U 21059T   22210.33095518  .00004795  00000-0  25002-3 0  9990","2 48896  97.5598 339.6565 0007389 319.3704  40.6977 15.16424370 60272","2021-059T","48896","6894.795","94.960","521.754","511.565","0"
"GENERATED VIA SPACETRACK.ORG API","18 SPCS","48896","SPACEBEE-105","PAYLOAD","U","21059T","2022-07-29 19:01:43","60800","15.16428975","0.0007383","97.5599","340.1167","317.4254","42.6406","0","999","6034","0.00025718","0.00004935","0","3524848","0 SPACEBEE-105","1 48896U 21059T   22210.79285950  .00004935  00000-0  25718-3 0  9991","2 48896  97.5599 340.1167 0007383 317.4254  42.6406 15.16428975 60343","2021-059T","48896","6894.781","94.960","521.736","511.555","0"
"GENERATED VIA SPACETRACK.ORG API","18 SPCS","48896","SPACEBEE-105","PAYLOAD","U","21059T","2022-07-29 23:46:46","679520","15.16431148","0.0007371","97.56","340.314","316.6182","43.447","0","999","6037","0.00026508","0.00005089","0","3524948","0 SPACEBEE-105","1 48896U 21059T   22210.99081805  .00005089  00000-0  26508-3 0  9995","2 48896  97.5600 340.3140 0007371 316.6182  43.4470 15.16431148 60376","2021-059T","48896","6894.774","94.960","521.721","511.557","0"
"GENERATED VIA SPACETRACK.ORG API","18 SPCS","48896","SPACEBEE-105","PAYLOAD","U","21059T","2022-07-30 07:41:52","669536","15.16434036","0.0007361","97.5601","340.6428","315.247","44.8168","0","999","6042","0.00025617","0.00004916","0","3525407","0 SPACEBEE-105","1 48896U 21059T   22211.32074849  .00004916  00000-0  25617-3 0  9991","2 48896  97.5601 340.6428 0007361 315.2470  44.8168 15.16434036 60427","2021-059T","48896","6894.765","94.960","521.706","511.555","0"
"GENERATED VIA SPACETRACK.ORG API","18 SPCS","48896","SPACEBEE-105","PAYLOAD","U","21059T","2022-07-30 18:47:00","960864","15.16438314","0.0007344","97.5602","341.103","313.3297","46.7323","0","999","6049","0.00025828","0.00004958","0","3525638","0 SPACEBEE-105","1 48896U 21059T   22211.78265001  .00004958  00000-0  25828-3 0  9993","2 48896  97.5602 341.1030 0007344 313.3297  46.7323 15.16438314 60494","2021-059T","48896","6894.752","94.959","521.681","511.554","0"
"GENERATED VIA SPACETRACK.ORG API","18 SPCS","48896","SPACEBEE-105","PAYLOAD","U","21059T","2022-07-31 04:17:07","960704","15.1644207","0.0007318","97.5603","341.4975","311.6781","48.3825","0","999","6055","0.00025644","0.00004922","0","3525731","0 SPACEBEE-105","1 48896U 21059T   22212.17856436  .00004922  00000-0  25644-3 0  9992","2 48896  97.5603 341.4975 0007318 311.6781  48.3825 15.16442070 60552","2021-059T","48896","6894.741","94.959","521.652","511.560","0"
"GENERATED VIA SPACETRACK.ORG API","18 SPCS","48896","SPACEBEE-105","PAYLOAD","U","21059T","2022-07-31 07:27:10","272384","15.16443391","0.0007301","97.5603","341.6291","311.2321","48.8282","0","999","6057","0.00025154","0.00004827","0","3526169","0 SPACEBEE-105","1 48896U 21059T   22212.31053556  .00004827  00000-0  25154-3 0  9990","2 48896  97.5603 341.6291 0007301 311.2321  48.8282 15.16443391 60574","2021-059T","48896","6894.737","94.959","521.636","511.568","0"
"GENERATED VIA SPACETRACK.ORG API","18 SPCS","48896","SPACEBEE-105","PAYLOAD","U","21059T","2022-07-31 20:07:19","437888","15.16449015","0.0007264","97.5604","342.1551","309.138","50.9206","0","999","6065","0.00026051","0.00005002","0","3526413","0 SPACEBEE-105","1 48896U 21059T   22212.83841942  .00005002  00000-0  26051-3 0  9994","2 48896  97.5604 342.1551 0007264 309.1380  50.9206 15.16449015 60657","2021-059T","48896","6894.720","94.959","521.593","511.577","0"
"GENERATED VIA SPACETRACK.ORG API","18 SPCS","48896","SPACEBEE-105","PAYLOAD","U","21059T","2022-08-01 07:12:27","337824","15.16453115","0.0007244","97.5604","342.6154","307.2618","52.7953","0","999","6072","0.00025188","0.00004835","0","3526737","0 SPACEBEE-105","1 48896U 21059T   22213.30031641  .00004835  00000-0  25188-3 0  9997","2 48896  97.5604 342.6154 0007244 307.2618  52.7953 15.16453115 60725","2021-059T","48896","6894.708","94.958","521.567","511.578","0"
"GENERATED VIA SPACETRACK.ORG API","18 SPCS","48896","SPACEBEE-105","PAYLOAD","U","21059T","2022-08-01 15:07:32","911392","15.16456243","0.0007216","97.5605","342.9442","306.03","54.0263","0","999","6077","0.00024983","0.00004795","0","3526929","0 SPACEBEE-105","1 48896U 21059T   22213.63024203  .00004795  00000-0  24983-3 0  9996","2 48896  97.5605 342.9442 0007216 306.0300  54.0263 15.16456243 60772","2021-059T","48896","6894.698","94.958","521.538","511.588","0"
"GENERATED VIA SPACETRACK.ORG API","18 SPCS","48896","SPACEBEE-105","PAYLOAD","U","21059T","2022-08-01 19:52:36","213888","15.16458346","0.0007211","97.5605","343.1415","305.2447","54.811","0","999","6080","0.00024868","0.00004773","0","3527139","0 SPACEBEE-105","1 48896U 21059T   22213.82819692  .00004773  00000-0  24868-3 0  9999","2 48896  97.5605 343.1415 0007211 305.2447  54.8110 15.16458346 60802","2021-059T","48896","6894.692","94.958","521.528","511.585","0"
"GENERATED VIA SPACETRACK.ORG API","18 SPCS","48896","SPACEBEE-105","PAYLOAD","U","21059T","2022-08-02 08:32:44","931840","15.16463254","0.00072","97.5604","343.6676","303.1193","56.9348","0","999","6088","0.00024047","0.00004614","0","3527532","0 SPACEBEE-105","1 48896U 21059T   22214.35607560  .00004614  00000-0  24047-3 0  9990","2 48896  97.5604 343.6676 0007200 303.1193  56.9348 15.16463254 60886","2021-059T","48896","6894.677","94.958","521.506","511.578","0"
"GENERATED VIA SPACETRACK.ORG API","18 SPCS","48896","SPACEBEE-105","PAYLOAD","U","21059T","2022-08-02 08:32:44","931840","15.16463254","0.00072","97.5604","343.6676","303.1193","56.9348","0","999","6088","0.00024047","0.00004614","0","3527697","0 SPACEBEE-105","1 48896U 21059T   22214.35607560  .00004614  00000-0  24047-3 0  9990","2 48896  97.5604 343.6676 0007200 303.1193  56.9348 15.16463254 60886","2021-059T","48896","6894.677","94.958","521.506","511.578","0"
"GENERATED VIA SPACETRACK.ORG API","18 SPCS","48896","SPACEBEE-105","PAYLOAD","U","21059T","2022-08-02 19:37:52","406688","15.16468508","0.0007171","97.5604","344.1279","301.2808","58.7722","0","999","6095","0.00024938","0.00004788","0","3527804","0 SPACEBEE-105","1 48896U 21059T   22214.81796767  .00004788  00000-0  24938-3 0  9990","2 48896  97.5604 344.1279 0007171 301.2808  58.7722 15.16468508 60951","2021-059T","48896","6894.661","94.957","521.470","511.582","0"
"GENERATED VIA SPACETRACK.ORG API","18 SPCS","48896","SPACEBEE-105","PAYLOAD","U","21059T","2022-08-03 08:18:00","801504","15.16474236","0.0007158","97.5604","344.6539","299.1578","60.8938","0","999","6103","0.00025624","0.00004923","0","3528364","0 SPACEBEE-105","1 48896U 21059T   22215.34584261  .00004923  00000-0  25624-3 0  9997","2 48896  97.5604 344.6539 0007158 299.1578  60.8938 15.16474236 61037","2021-059T","48896","6894.644","94.957","521.444","511.573","0"
"GENERATED VIA SPACETRACK.ORG API","18 SPCS","48896","SPACEBEE-105","PAYLOAD","U","21059T","2022-08-03 14:38:04","967808","15.16476475","0.0007147","97.5603","344.917","298.0691","61.9818","0","999","6107","0.0002525","0.0000485","0","3528462","0 SPACEBEE-105","1 48896U 21059T   22215.60977972  .00004850  00000-0  25250-3 0  9995","2 48896  97.5603 344.9170 0007147 298.0691  61.9818 15.16476475 61072","2021-059T","48896","6894.637","94.957","521.429","511.574","0"
"GENERATED VIA SPACETRACK.ORG API","18 SPCS","48896","SPACEBEE-105","PAYLOAD","U","21059T","2022-08-03 19:23:08","63808","15.16477871","0.0007144","97.5603","345.1143","297.25","62.8005","0","999","6110","0.00023992","0.00004605","0","3528582","0 SPACEBEE-105","1 48896U 21059T   22215.80773222  .00004605  00000-0  23992-3 0  9998","2 48896  97.5603 345.1143 0007144 297.2500  62.8005 15.16477871 61105","2021-059T","48896","6894.633","94.957","521.423","511.572","0"
"GENERATED VIA SPACETRACK.ORG API","18 SPCS","48896","SPACEBEE-105","PAYLOAD","U","21059T","2022-08-04 08:03:16","189920","15.16483098","0.0007148","97.5603","345.6403","295.0451","65.0039","0","999","6118","0.00024325","0.00004671","0","3529060","0 SPACEBEE-105","1 48896U 21059T   22216.33560405  .00004671  00000-0  24325-3 0  9998","2 48896  97.5603 345.6403 0007148 295.0451  65.0039 15.16483098 61182","2021-059T","48896","6894.617","94.957","521.410","511.553","0"
"GENERATED VIA SPACETRACK.ORG API","18 SPCS","48896","SPACEBEE-105","PAYLOAD","U","21059T","2022-08-04 19:08:23","172288","15.16488629","0.0007141","97.5602","346.1006","293.0669","66.9811","0","999","6125","0.00026533","0.00005102","0","3529274","0 SPACEBEE-105","1 48896U 21059T   22216.79749042  .00005102  00000-0  26533-3 0  9997","2 48896  97.5602 346.1006 0007141 293.0669  66.9811 15.16488629 61259","2021-059T","48896","6894.600","94.956","521.388","511.541","0"
